[{"OBJECT_NAME":"JILIN-1 08","OBJECT_ID":"2018-008F","EPOCH":"2026-03-09T22:37:53.184288","MEAN_MOTION":15.32205976,"ECCENTRICITY":0.00081321,"INCLINATION":97.1902,"RA_OF_ASC_NODE":90.9961,"ARG_OF_PERICENTER":76.0646,"MEAN_ANOMALY":284.15,"EPHEMERIS_TYPE":0,"CLASSIFICATION_TYPE":"U","NORAD_CAT_ID":43160,"ELEMENT_SET_NO":999,"REV_AT_EPOCH":44974,"BSTAR":0.00036689195,"MEAN_MOTION_DOT":0.00011349,"MEAN_MOTION_DDOT":0},{"OBJECT_NAME":"STARLINK-35691","OBJECT_ID":"2025-257AA","EPOCH":"2026-03-09T16:31:25.338144","MEAN_MOTION":15.30197794,"ECCENTRICITY":9.608e-5,"INCLINATION":53.1592,"RA_OF_ASC_NODE":216.9977,"ARG_OF_PERICENTER":94.1077,"MEAN_ANOMALY":266.0034,"EPHEMERIS_TYPE":0,"CLASSIFICATION_TYPE":"U","NORAD_CAT_ID":66404,"ELEMENT_SET_NO":999,"REV_AT_EPOCH":1973,"BSTAR":0.0010394497,"MEAN_MOTION_DOT":0.00030551,"MEAN_MOTION_DDOT":0}]
